[{"OBJECT_NAME":"STARLINK-5067","OBJECT_ID":"2023-021AB","EPOCH":"2025-11-29T00:04:33.817152","MEAN_MOTION":14.98330906,"ECCENTRICITY":0.0003396,"INCLINATION":70.0003,"RA_OF_ASC_NODE":78.1568,"ARG_OF_PERICENTER":268.9594,"MEAN_ANOMALY":91.1176,"EPHEMERIS_TYPE":0,"CLASSIFICATION_TYPE":"U","NORAD_CAT_ID":55653,"ELEMENT_SET_NO":999,"REV_AT_EPOCH":15371,"BSTAR":6.8255e-5,"MEAN_MOTION_DOT":7.21e-6,"MEAN_MOTION_DDOT":0},{"OBJECT_NAME":"STARLINK-5070","OBJECT_ID":"2023-021AC","EPOCH":"2025-11-28T12:33:38.018016","MEAN_MOTION":14.9832057,"ECCENTRICITY":0.00030938,"INCLINATION":70.0006,"RA_OF_ASC_NODE":79.6967,"ARG_OF_PERICENTER":272.474,"MEAN_ANOMALY":87.6065,"EPHEMERIS_TYPE":0,"CLASSIFICATION_TYPE":"U","NORAD_CAT_ID":55654,"ELEMENT_SET_NO":999,"REV_AT_EPOCH":15363,"BSTAR":0.00032149413,"MEAN_MOTION_DOT":3.744e-5,"MEAN_MOTION_DDOT":0},{"OBJECT_NAME":"STARLINK-5267","OBJECT_ID":"2023-021AD","EPOCH":"2025-11-29T05:28:42.718944","MEAN_MOTION":14.98328674,"ECCENTRICITY":0.0002929,"INCLINATION":70.0008,"RA_OF_ASC_NODE":57.8667,"ARG_OF_PERICENTER":266.9454,"MEAN_ANOMALY":93.137,"EPHEMERIS_TYPE":0,"CLASSIFICATION_TYPE":"U","NORAD_CAT_ID":55655,"ELEMENT_SET_NO":999,"REV_AT_EPOCH":15422,"BSTAR":4.754e-6,"MEAN_MOTION_DOT":-3.6e-7,"MEAN_MOTION_DDOT":0},{"OBJECT_NAME":"STARLINK-5326","OBJECT_ID":"2023-021AE","EPOCH":"2025-11-29T01:07:08.882976","MEAN_MOTION":16.18674776,"ECCENTRICITY":0.0003575,"INCLINATION":69.9889,"RA_OF_ASC_NODE":64.4442,"ARG_OF_PERICENTER":294.9207,"MEAN_ANOMALY":65.1641,"EPHEMERIS_TYPE":0,"CLASSIFICATION_TYPE":"U","NORAD_CAT_ID":55656,"ELEMENT_SET_NO":999,"REV_AT_EPOCH":15405,"BSTAR":0.00072339,"MEAN_MOTION_DOT":0.01250706,"MEAN_MOTION_DDOT":4.1748e-6},{"OBJECT_NAME":"STARLINK-5328","OBJECT_ID":"2023-021AF","EPOCH":"2025-11-28T23:16:12.022176","MEAN_MOTION":14.98319269,"ECCENTRICITY":0.0002899,"INCLINATION":70.0005,"RA_OF_ASC_NODE":58.5689,"ARG_OF_PERICENTER":261.5139,"MEAN_ANOMALY":98.5691,"EPHEMERIS_TYPE":0,"CLASSIFICATION_TYPE":"U","NORAD_CAT_ID":55657,"ELEMENT_SET_NO":999,"REV_AT_EPOCH":15419,"BSTAR":0.00017677,"MEAN_MOTION_DOT":2.016e-5,"MEAN_MOTION_DDOT":0},{"OBJECT_NAME":"STARLINK-5307","OBJECT_ID":"2023-021AG","EPOCH":"2025-11-29T00:16:35.207904","MEAN_MOTION":14.98331398,"ECCENTRICITY":0.0003085,"INCLINATION":70.0003,"RA_OF_ASC_NODE":78.1876,"ARG_OF_PERICENTER":269.5873,"MEAN_ANOMALY":90.4932,"EPHEMERIS_TYPE":0,"CLASSIFICATION_TYPE":"U","NORAD_CAT_ID":55658,"ELEMENT_SET_NO":999,"REV_AT_EPOCH":15371,"BSTAR":3.8871e-5,"MEAN_MOTION_DOT":3.71e-6,"MEAN_MOTION_DDOT":0},{"OBJECT_NAME":"STARLINK-5477","OBJECT_ID":"2023-021AH","EPOCH":"2025-11-28T23:10:10.910784","MEAN_MOTION":14.98330514,"ECCENTRICITY":0.0003091,"INCLINATION":70.0005,"RA_OF_ASC_NODE":58.5533,"ARG_OF_PERICENTER":270.5522,"MEAN_ANOMALY":89.5283,"EPHEMERIS_TYPE":0,"CLASSIFICATION_TYPE":"U","NORAD_CAT_ID":55659,"ELEMENT_SET_NO":999,"REV_AT_EPOCH":15418,"BSTAR":2.9945e-5,"MEAN_MOTION_DOT":2.64e-6,"MEAN_MOTION_DDOT":0},{"OBJECT_NAME":"STARLINK-5467","OBJECT_ID":"2023-021AJ","EPOCH":"2025-11-28T23:34:11.678304","MEAN_MOTION":14.98321731,"ECCENTRICITY":0.0003225,"INCLINATION":70.0007,"RA_OF_ASC_NODE":58.2198,"ARG_OF_PERICENTER":270.0672,"MEAN_ANOMALY":90.0117,"EPHEMERIS_TYPE":0,"CLASSIFICATION_TYPE":"U","NORAD_CAT_ID":55660,"ELEMENT_SET_NO":999,"REV_AT_EPOCH":15420,"BSTAR":0.0001542,"MEAN_MOTION_DOT":1.747e-5,"MEAN_MOTION_DDOT":0},{"OBJECT_NAME":"STARLINK-5475","OBJECT_ID":"2023-021AK","EPOCH":"2025-11-28T22:46:08.518080","MEAN_MOTION":14.98330992,"ECCENTRICITY":0.0003456,"INCLINATION":70.0005,"RA_OF_ASC_NODE":58.4958,"ARG_OF_PERICENTER":271.1623,"MEAN_ANOMALY":88.914,"EPHEMERIS_TYPE":0,"CLASSIFICATION_TYPE":"U","NORAD_CAT_ID":55661,"ELEMENT_SET_NO":999,"REV_AT_EPOCH":15419,"BSTAR":0.00016313,"MEAN_MOTION_DOT":1.854e-5,"MEAN_MOTION_DDOT":0},{"OBJECT_NAME":"STARLINK-5479","OBJECT_ID":"2023-021AL","EPOCH":"2025-11-28T23:47:59.521632","MEAN_MOTION":14.97521374,"ECCENTRICITY":0.0003785,"INCLINATION":70.0005,"RA_OF_ASC_NODE":57.8685,"ARG_OF_PERICENTER":274.0199,"MEAN_ANOMALY":86.0527,"EPHEMERIS_TYPE":0,"CLASSIFICATION_TYPE":"U","NORAD_CAT_ID":55662,"ELEMENT_SET_NO":999,"REV_AT_EPOCH":15421,"BSTAR":4.307e-5,"MEAN_MOTION_DOT":4.11e-6,"MEAN_MOTION_DDOT":0},{"OBJECT_NAME":"STARLINK-5473","OBJECT_ID":"2023-021AM","EPOCH":"2025-11-28T14:33:26.555904","MEAN_MOTION":14.98334438,"ECCENTRICITY":0.00030243,"INCLINATION":70.0008,"RA_OF_ASC_NODE":59.3076,"ARG_OF_PERICENTER":270.6405,"MEAN_ANOMALY":89.4407,"EPHEMERIS_TYPE":0,"CLASSIFICATION_TYPE":"U","NORAD_CAT_ID":55663,"ELEMENT_SET_NO":999,"REV_AT_EPOCH":15413,"BSTAR":6.8246873e-5,"MEAN_MOTION_DOT":7.21e-6,"MEAN_MOTION_DDOT":0},{"OBJECT_NAME":"STARLINK-5480","OBJECT_ID":"2023-021AN","EPOCH":"2025-11-28T22:58:10.081632","MEAN_MOTION":14.98333751,"ECCENTRICITY":0.0003049,"INCLINATION":70.0009,"RA_OF_ASC_NODE":58.5268,"ARG_OF_PERICENTER":266.5147,"MEAN_ANOMALY":93.5664,"EPHEMERIS_TYPE":0,"CLASSIFICATION_TYPE":"U","NORAD_CAT_ID":55664,"ELEMENT_SET_NO":999,"REV_AT_EPOCH":15419,"BSTAR":-1.9458e-5,"MEAN_MOTION_DOT":-3.25e-6,"MEAN_MOTION_DDOT":0},{"OBJECT_NAME":"STARLINK-5474","OBJECT_ID":"2023-021AP","EPOCH":"2025-11-29T04:52:38.896608","MEAN_MOTION":14.98326935,"ECCENTRICITY":0.000302,"INCLINATION":70.0009,"RA_OF_ASC_NODE":57.7802,"ARG_OF_PERICENTER":271.6462,"MEAN_ANOMALY":88.4352,"EPHEMERIS_TYPE":0,"CLASSIFICATION_TYPE":"U","NORAD_CAT_ID":55665,"ELEMENT_SET_NO":999,"REV_AT_EPOCH":15423,"BSTAR":1.7622e-6,"MEAN_MOTION_DOT":-7.2e-7,"MEAN_MOTION_DDOT":0},{"OBJECT_NAME":"STARLINK-5456","OBJECT_ID":"2023-021AR","EPOCH":"2025-11-28T23:46:12.699264","MEAN_MOTION":14.98329564,"ECCENTRICITY":0.000303,"INCLINATION":70.0008,"RA_OF_ASC_NODE":58.2415,"ARG_OF_PERICENTER":270.0644,"MEAN_ANOMALY":90.0168,"EPHEMERIS_TYPE":0,"CLASSIFICATION_TYPE":"U","NORAD_CAT_ID":55667,"ELEMENT_SET_NO":999,"REV_AT_EPOCH":15420,"BSTAR":2.7401e-5,"MEAN_MOTION_DOT":2.34e-6,"MEAN_MOTION_DDOT":0},{"OBJECT_NAME":"STARLINK-5455","OBJECT_ID":"2023-021AS","EPOCH":"2025-11-29T05:16:42.170592","MEAN_MOTION":14.98187586,"ECCENTRICITY":0.0003315,"INCLINATION":70.0007,"RA_OF_ASC_NODE":57.8372,"ARG_OF_PERICENTER":305.2874,"MEAN_ANOMALY":54.7975,"EPHEMERIS_TYPE":0,"CLASSIFICATION_TYPE":"U","NORAD_CAT_ID":55668,"ELEMENT_SET_NO":999,"REV_AT_EPOCH":15422,"BSTAR":0.0023173,"MEAN_MOTION_DOT":0.00027564,"MEAN_MOTION_DDOT":0},{"OBJECT_NAME":"STARLINK-5459","OBJECT_ID":"2023-021AT","EPOCH":"2025-11-29T05:04:41.198016","MEAN_MOTION":14.98311043,"ECCENTRICITY":0.0002208,"INCLINATION":70.0044,"RA_OF_ASC_NODE":57.8203,"ARG_OF_PERICENTER":269.6241,"MEAN_ANOMALY":90.4665,"EPHEMERIS_TYPE":0,"CLASSIFICATION_TYPE":"U","NORAD_CAT_ID":55669,"ELEMENT_SET_NO":999,"REV_AT_EPOCH":15422,"BSTAR":0.00049723,"MEAN_MOTION_DOT":5.842e-5,"MEAN_MOTION_DDOT":0},{"OBJECT_NAME":"STARLINK-5423","OBJECT_ID":"2023-021AU","EPOCH":"2025-11-28T14:21:27.649152","MEAN_MOTION":14.98312523,"ECCENTRICITY":0.00029359,"INCLINATION":70.0008,"RA_OF_ASC_NODE":59.28,"ARG_OF_PERICENTER":260.4828,"MEAN_ANOMALY":99.5999,"EPHEMERIS_TYPE":0,"CLASSIFICATION_TYPE":"U","NORAD_CAT_ID":55670,"ELEMENT_SET_NO":999,"REV_AT_EPOCH":15414,"BSTAR":-0.0001430264,"MEAN_MOTION_DOT":-1.798e-5,"MEAN_MOTION_DDOT":0},{"OBJECT_NAME":"STARLINK-5460","OBJECT_ID":"2023-021AV","EPOCH":"2025-11-28T23:28:27.160032","MEAN_MOTION":14.98329782,"ECCENTRICITY":0.000316,"INCLINATION":70.0004,"RA_OF_ASC_NODE":58.5877,"ARG_OF_PERICENTER":269.1958,"MEAN_ANOMALY":90.8839,"EPHEMERIS_TYPE":0,"CLASSIFICATION_TYPE":"U","NORAD_CAT_ID":55671,"ELEMENT_SET_NO":999,"REV_AT_EPOCH":15419,"BSTAR":2.3262e-5,"MEAN_MOTION_DOT":1.85e-6,"MEAN_MOTION_DDOT":0},{"OBJECT_NAME":"STARLINK-5463","OBJECT_ID":"2023-021AX","EPOCH":"2025-11-28T14:15:24.756192","MEAN_MOTION":14.98332958,"ECCENTRICITY":0.00029518,"INCLINATION":70.0008,"RA_OF_ASC_NODE":59.2638,"ARG_OF_PERICENTER":267.9364,"MEAN_ANOMALY":92.1457,"EPHEMERIS_TYPE":0,"CLASSIFICATION_TYPE":"U","NORAD_CAT_ID":55673,"ELEMENT_SET_NO":999,"REV_AT_EPOCH":15414,"BSTAR":3.2138614e-5,"MEAN_MOTION_DOT":2.91e-6,"MEAN_MOTION_DDOT":0},{"OBJECT_NAME":"STARLINK-5462","OBJECT_ID":"2023-021AY","EPOCH":"2025-11-29T04:28:36.274944","MEAN_MOTION":14.98335627,"ECCENTRICITY":0.0003176,"INCLINATION":70.0025,"RA_OF_ASC_NODE":57.7191,"ARG_OF_PERICENTER":269.7765,"MEAN_ANOMALY":90.303,"EPHEMERIS_TYPE":0,"CLASSIFICATION_TYPE":"U","NORAD_CAT_ID":55674,"ELEMENT_SET_NO":999,"REV_AT_EPOCH":15423,"BSTAR":0.00038738,"MEAN_MOTION_DOT":4.533e-5,"MEAN_MOTION_DDOT":0},{"OBJECT_NAME":"STARLINK-5232","OBJECT_ID":"2023-021AZ","EPOCH":"2025-11-28T15:27:30.293568","MEAN_MOTION":14.98330671,"ECCENTRICITY":0.00030276,"INCLINATION":70.001,"RA_OF_ASC_NODE":59.0405,"ARG_OF_PERICENTER":270.2454,"MEAN_ANOMALY":89.8358,"EPHEMERIS_TYPE":0,"CLASSIFICATION_TYPE":"U","NORAD_CAT_ID":55675,"ELEMENT_SET_NO":999,"REV_AT_EPOCH":15415,"BSTAR":4.2121132e-5,"MEAN_MOTION_DOT":4.1e-6,"MEAN_MOTION_DDOT":0},{"OBJECT_NAME":"STARLINK-5300","OBJECT_ID":"2023-021BA","EPOCH":"2025-11-28T22:16:00.469344","MEAN_MOTION":14.98337332,"ECCENTRICITY":0.0003025,"INCLINATION":70.0023,"RA_OF_ASC_NODE":38.5524,"ARG_OF_PERICENTER":271.5477,"MEAN_ANOMALY":88.5336,"EPHEMERIS_TYPE":0,"CLASSIFICATION_TYPE":"U","NORAD_CAT_ID":55676,"ELEMENT_SET_NO":999,"REV_AT_EPOCH":15468,"BSTAR":0.00033021,"MEAN_MOTION_DOT":3.85e-5,"MEAN_MOTION_DDOT":0},{"OBJECT_NAME":"STARLINK-5324","OBJECT_ID":"2023-021BB","EPOCH":"2025-11-29T04:22:16.573728","MEAN_MOTION":14.98326671,"ECCENTRICITY":0.0003019,"INCLINATION":70.0005,"RA_OF_ASC_NODE":37.8314,"ARG_OF_PERICENTER":269.879,"MEAN_ANOMALY":90.2023,"EPHEMERIS_TYPE":0,"CLASSIFICATION_TYPE":"U","NORAD_CAT_ID":55677,"ELEMENT_SET_NO":999,"REV_AT_EPOCH":15472,"BSTAR":-3.5594e-5,"MEAN_MOTION_DOT":-5.18e-6,"MEAN_MOTION_DDOT":0}]
